#dP2021  4 23 12  0  0.00000000      96 __u+U ITR00 EXT  IAC
## 2154 475200.00000000   900.00000000 59327 0.5000000000000
+  115   C06C07C08C09C10C11C12C13C14C16C19C20C21C22C23C24C25
+        C26C27C28C29C30C32C33C34C35C36C37C38C39C40C41C42C43
+        C44C45C46E01E02E03E04E05E07E08E09E11E12E13E14E15E18
+        E19E21E24E25E26E27E30E31E33E36G01G02G03G04G05G06G08
+        G09G10G12G13G14G15G16G17G18G19G20G21G22G23G24G25G26
+        G27G28G29G30G31G32J01J02J03R01R02R03R04R05R07R08R09
+        R11R12R13R14R15R16R17R18R19R20R21R22R24  0  0  0  0
++         9 10  7 10  9  8  7  9  9 10  7  9  8  8 10  8  8
++         7  8  8  9  8  8  9  9 10  8  7  9 13 10  9  8  8
++         9  8  7  7  7  9  7  7  8  9  8  7  7  8  7  6  9
++         8  9  7  6  7  9  7  7  7  7  7  7  7  8  8  7  7
++         6  7  7  8  6  8  7  7  8  7  8  7  7  8  7  7  8
++         7  7  7  7  8  8 12 10 13  8  9  9  7  7  9  8 11
++         8  8  8  7  8  7  8  6  9 10  9 10  7  0  0  0  0
%c M  cc GPS ccc cccc cccc cccc cccc ccccc ccccc ccccc ccccc
%c cc cc ccc ccc cccc cccc cccc cccc ccccc ccccc ccccc ccccc
%f  0.0000000  0.000000000  0.00000000000  0.000000000000000
%f  0.0000000  0.000000000  0.00000000000  0.000000000000000
%i    0    0    0    0      0      0      0      0         0
%i    0    0    0    0      0      0      0      0         0
/* IAC                                ULTRA-RAPID PREDICTION
/* S/V CLOCKS ARE ALIGNED TO GNSS TIME                      
/* G:C1WC2W R:C1PC2P E:C1XC5X C:C2IC6I J:C1CC2S             
/* PCV:IGS14_2148 OL/AL:FES2004  NONE     YN ORB:CoN CLK:CoN
*  2021 04 23 20  0  0.00000000
PC06 -11871.502017  21867.206338  34506.360746    309.510349
PC07 -25118.878053  31790.105652 -12340.003284   -150.844293
PC08  -9372.827190  35749.684687 -19845.261401   -891.102067
PC09   4162.530463  28400.005136  31321.853983    574.264469
PC10 -11470.192592  33060.223216 -23624.881585    -52.299075
PC11 -14035.366382 -20400.534247  12959.532977   -792.150635
PC12   3768.039688 -15646.313816  22830.481476    914.332827
PC13  -1018.049935  41405.964374  -7056.492343    233.450877
PC14  -4726.204636 -15351.355106 -22784.914094    546.004867
PC16  -7877.042711  23071.031297  34533.673486   -799.315759
PC19  14577.421658   9627.809456  21788.565183    809.503898
PC20  -4274.565244  18147.558049  20796.698256   -949.147604
PC21  21530.075079 -16163.891248  -7270.403993   -948.952230
PC22  25556.699464  -4697.920324  10141.581090   -963.864921
PC23 -16266.911660     64.403617  22675.917574   -892.872136
PC24   1767.876205 -27857.448171    547.621405   -824.092802
PC25 -11177.995114 -19064.689100  17045.202119   -927.855889
PC26  11699.946224 -20535.061285 -14873.180103    916.832957
PC27 -13250.122272   9730.408593 -22567.233896    520.305164
PC28 -24048.633585  -6048.905910 -12800.298978    -82.715865
PC29  21360.175542  17410.515538  -4434.162289    382.864149
PC30   5468.097243  19416.136289 -19301.450317    462.554295
PC32 -21401.403498  16368.013761   7317.263352   -943.752115
PC33 -14612.807957  -9575.790931 -21752.435640   -941.983832
PC34  -6100.541559 -19597.907519  18882.991913   -689.168339
PC35  24363.803145   5473.423331  12490.528237   -313.197420
PC36  10539.959829  19607.904104 -16805.987997   -729.687665
PC37 -12560.063205  19495.374769  15524.084556   -903.690400
PC38  -7515.788652  38391.963805 -15577.230769    144.206044
PC39  -3111.636215  24596.351024  34126.916339     30.564277
PC40 -18418.414799  29102.886577 -24389.818403    154.091642
PC41 -25498.416835   4609.485630 -10303.897967   -947.120861
PC42   5010.236790 -18305.388767 -20403.299934   -921.086889
PC43 -20978.391798 -17720.126222   4874.161377   -698.942829
PC44  13215.099667 -10075.294586  22414.185008    152.781352
PC45  16151.982393   -246.536807 -22753.947503    421.725848
PC46  -1069.520689  27827.310144  -1483.554091    302.659040
PE01  19907.861926 -19371.611895 -10238.212400  -1093.221605
PE02 -19866.848616  19452.487849  10124.887096    214.275148
PE03 -24096.012872   9599.445603  14280.618119   -423.388073
PE04   5152.529539 -16767.848102 -23831.557403   -756.347487
PE05 -29167.118471  -3320.239847  -3806.911805   -286.462259
PE07  17171.370019  14181.739717  19504.394372   -529.290178
PE08  -4711.765988  16699.256177  23989.848686   6013.045729
PE09 -17435.569566 -13899.210330 -19466.618702   5690.998007
PE11 -15759.443386 -24925.654199  -2413.672205   6061.941317
PE12  -1739.523712 -24729.005672  16156.550420   5244.987890
PE13  15627.186361  25068.848784   1987.059361    415.434897
PE14  23030.341056  12593.997152  -6959.525534  -1407.177816
PE15   1918.058805  24732.753051 -16151.376836    817.922703
PE18 -29251.711706  -2120.548168  -7921.926721  -1539.689819
PE19  25533.097678  -8205.670862 -12517.725394    259.655593
PE21  18865.901453  -1516.661874 -22763.943610   -661.002321
PE24  -6215.214241 -18581.748085  22178.382272   -863.024974
PE25 -18791.352897   1304.170688  22833.295123   -531.794476
PE26  20109.239366   9904.019193  19337.673468   1890.423413
PE27   6897.501072  17909.200115 -22533.301225    -17.543647
PE30  -9815.136902  26676.638113  -8243.038588   3001.137000
PE31   9047.752447 -26689.332999   9064.043474   -480.459011
PE33  12913.755247  -9821.701767  24761.826840   -467.855056
PE36 -20108.655202 -10632.827829 -18929.101160   -197.716275
PG01  15093.813556    203.445858  21639.084944    708.354220
PG02 -13705.821636 -21417.845601  -6927.122048   -598.295027
PG03  20935.729991  -9435.293923  13165.876992   -145.033896
PG04  25146.044303    248.837597  -8631.086535   -193.267682
PG05 -14808.018865  -5951.764666 -21408.754788    -39.935174
PG06  -5694.355243 -25695.928358   3385.257746      9.577995
PG08  26142.147997   5558.013757   -308.448164    -18.609446
PG09  18650.748706  -8487.742101 -16972.621489   -340.984169
PG10  -8738.687347  21900.689389  12073.094376   -108.020907
PG12 -20918.802888   5782.029911  14956.780055    -31.771857
PG13 -21749.114260 -13458.469653  -7543.875728    123.529856
PG14  10429.085988 -21636.583522  11301.780926     93.609163
PG15 -26572.443711  -3109.334819   -462.061144   -154.147097
PG16  11219.744066  10108.474423 -22109.590081   -314.316095
PG17   2344.357278 -14830.067710  22335.381027    431.220981
PG18  -7308.536367  18411.743162 -17670.827384    351.490092
PG19  -7333.711671 -16211.876508  19469.109313     -9.053183
PG20 -19661.371171  12033.046104 -12918.853481    522.874597
PG21  17637.108888   7797.259456  19179.633258    113.174387
PG22  18359.796362   -674.711931  19311.240912   -630.988913
PG23 -16607.669775  20642.490334   1470.465192    111.729234
PG24 -17354.647037  -5338.787475  19263.641352     30.474263
PG25 -19697.442605  16957.116220   4440.010680    124.213489
PG26   3871.287894  17509.318345 -19568.402063     76.157356
PG27  20884.035521  12456.963625 -11288.605524   -118.005294
PG28   7735.537316 -20900.859139  15151.957295    582.192059
PG29 -18856.124316   6549.136048 -17591.698295   -335.166387
PG30    975.794679 -24280.302855 -10388.236286   -416.877833
PG31   7135.038126  25318.641250    194.408221   -113.314281
PG32    774.151028  15684.522368  21547.167839     22.007677
PJ01 -31423.297219  25757.893659  16303.114474   -369.338940
PJ02 -31333.108508  26687.980305  13838.143826      6.232644
PJ03 -25407.262709  16788.950606 -24576.838541     -3.966489
PR01 -14541.115028  -5811.107174 -20134.048702     78.353822
PR02 -24759.813771   5182.631094  -2989.953608    475.949659
PR03 -17877.582147  11767.246363  13887.047049     34.727776
PR04  -1147.511505  11412.115839  22815.889099     83.719247
PR05  16293.415534   4850.767981  19041.584667     70.498875
PR07  17510.033799 -11832.711790 -14273.307769    -42.520428
PR08   1082.870134 -11487.359392 -22690.524292    -58.670205
PR09  12401.308897  -6499.655290 -21291.058603    -10.587762
PR11   2081.490247 -24188.446680   7816.912910     -0.295971
PR12  -7152.287106 -12525.611977  21066.326646    223.272838
PR13 -12096.166361   5984.426047  21626.343511    -53.814233
PR14 -10070.289096  21575.246481   9180.187402     63.483936
PR15  -2178.382715  24052.094627  -8194.170048    104.203591
PR16   8062.501369  11288.881903 -21401.059828    -14.183432
PR17  -5968.578763   8886.577863 -23145.466667    418.359825
PR18   8285.701115  18337.238329 -15702.680512     74.172348
PR19  17283.120821  18748.810608   -733.112164   -140.964874
PR20  17213.120404   6923.521725  17535.652881    -47.856266
PR21   4916.250008  -9755.025455  23049.997245   -203.887628
PR22  -8944.034512 -18589.841181  14915.467607   -109.270399
PR24 -17278.534997  -5806.778718 -17832.623397     40.001268
EOF
